[{"OBJECT_NAME":"VSP RF C1","OBJECT_ID":"2024-043AQ","EPOCH":"2026-03-09T21:56:05.358624","MEAN_MOTION":15.29409663,"ECCENTRICITY":0.00093965,"INCLINATION":97.5441,"RA_OF_ASC_NODE":205.1792,"ARG_OF_PERICENTER":219.6172,"MEAN_ANOMALY":140.4382,"EPHEMERIS_TYPE":0,"CLASSIFICATION_TYPE":"U","NORAD_CAT_ID":59136,"ELEMENT_SET_NO":999,"REV_AT_EPOCH":11190,"BSTAR":0.00026222052,"MEAN_MOTION_DOT":7.409e-5,"MEAN_MOTION_DDOT":0},{"OBJECT_NAME":"STARLINK-31862","OBJECT_ID":"2024-093E","EPOCH":"2026-03-09T10:57:28.356480","MEAN_MOTION":15.27569338,"ECCENTRICITY":0.00017431,"INCLINATION":43.0057,"RA_OF_ASC_NODE":209.8847,"ARG_OF_PERICENTER":271.3935,"MEAN_ANOMALY":88.6717,"EPHEMERIS_TYPE":0,"CLASSIFICATION_TYPE":"U","NORAD_CAT_ID":59786,"ELEMENT_SET_NO":999,"REV_AT_EPOCH":10266,"BSTAR":-3.1586818e-5,"MEAN_MOTION_DOT":-1.131e-5,"MEAN_MOTION_DDOT":0}]
